{
  "norad_id": 63863,
  "name": "STARLINK-33954",
  "history": [
    {
      "epoch": "2026-03-28T22:37:32.443104Z",
      "apogee_km": 484.30865336776696,
      "perigee_km": 481.62047377515955,
      "latitude_deg": -2.0869862928197793e-05,
      "longitude_deg": 163.67005859738228,
      "height_km": 482.6881533694811,
      "semi_major_axis_km": 6861.101563571463,
      "eccentricity": 0.0001959,
      "inclination_deg": 43.0009,
      "raan_deg": 329.4112,
      "arg_perigee_deg": 272.288,
      "mean_anomaly_deg": 87.7747,
      "mean_motion_rev_day": 15.27608231
    }
  ]
}